[{"spaceTrack":{"CCSDS_OMM_VERS":"2.0","COMMENT":"GENERATED VIA SPACE-TRACK.ORG API","CREATION_DATE":"2020-09-20 14:26:09","ORIGINATOR":"18 SPCS","OBJECT_NAME":"STARLINK-1050","OBJECT_ID":"2019-074AU","CENTER_NAME":"EARTH","REF_FRAME":"TEME","TIME_SYSTEM":"UTC","MEAN_ELEMENT_THEORY":"SGP4","EPOCH":"2020-09-20 14:00:01.000224","MEAN_MOTION":15.05577913,"ECCENTRICITY":0.0001507,"INCLINATION":53,"RA_OF_ASC_NODE":187.4817,"ARG_OF_PERICENTER":72.2272,"MEAN_ANOMALY":79.1999,"EPHEMERIS_TYPE":0,"CLASSIFICATION_TYPE":"U","NORAD_CAT_ID":44755,"ELEMENT_SET_NO":999,"REV_AT_EPOCH":4752,"BSTAR":0.0011719,"MEAN_MOTION_DOT":0.00016835,"MEAN_MOTION_DDOT":0,"SEMIMAJOR_AXIS":6927.869,"PERIOD":95.644,"APOAPSIS":550.778,"PERIAPSIS":548.69,"OBJECT_TYPE":"PAYLOAD","RCS_SIZE":"LARGE","COUNTRY_CODE":"US","LAUNCH_DATE":"2019-11-11","SITE":"AFETR","DECAY_DATE":null,"DECAYED":0,"FILE":2829165,"GP_ID":161771911,"TLE_LINE0":"0 STARLINK-1050","TLE_LINE1":"1 44755U 19074AU  20264.58334491  .00016835  00000-0  11719-2 0  9991","TLE_LINE2":"2 44755  53.0000 187.4817 0001507  72.2272  79.1999 15.05577913 47521"},"version":"v1.0","launch":"5eb87d39ffd86e000604b37d","longitude":114.31183601251662,"latitude":23.562476463545536,"height_km":550.2994826569065,"velocity_kms":7.590159104941447,"id":"5eed7714096e590006985675"},{"spaceTrack":{"CCSDS_OMM_VERS":"2.0","COMMENT":"GENERATED VIA SPACE-TRACK.ORG API","CREATION_DATE":"2020-09-19 22:46:10","ORIGINATOR":"18 SPCS","OBJECT_NAME":"STARLINK-1059","OBJECT_ID":"2019-074BD","CENTER_NAME":"EARTH","REF_FRAME":"TEME","TIME_SYSTEM":"UTC","MEAN_ELEMENT_THEORY":"SGP4","EPOCH":"2020-09-19 20:00:01.000224","MEAN_MOTION":15.05594949,"ECCENTRICITY":0.0001605,"INCLINATION":53.0002,"RA_OF_ASC_NODE":170.854,"ARG_OF_PERICENTER":83.5377,"MEAN_ANOMALY":248.2217,"EPHEMERIS_TYPE":0,"CLASSIFICATION_TYPE":"U","NORAD_CAT_ID":44764,"ELEMENT_SET_NO":999,"REV_AT_EPOCH":4767,"BSTAR":-0.0012809,"MEAN_MOTION_DOT":-0.000189,"MEAN_MOTION_DDOT":0,"SEMIMAJOR_AXIS":6927.817,"PERIOD":95.643,"APOAPSIS":550.793,"PERIAPSIS":548.57,"OBJECT_TYPE":"PAYLOAD","RCS_SIZE":"LARGE","COUNTRY_CODE":"US","LAUNCH_DATE":"2019-11-11","SITE":"AFETR","DECAY_DATE":null,"DECAYED":0,"FILE":2828431,"GP_ID":161736592,"TLE_LINE0":"0 STARLINK-1059","TLE_LINE1":"1 44764U 19074BD  20263.83334491 -.00018900  00000-0 -12809-2 0  9996","TLE_LINE2":"2 44764  53.0002 170.8540 0001605  83.5377 248.2217 15.05594949 47678"},"version":"v1.0","launch":"5eb87d39ffd86e000604b37d","longitude":3.4416802931650237,"latitude":51.43567609940961,"height_km":554.8279779178556,"velocity_kms":7.5910791143510385,"id":"5eed7714096e590006985676"},{"spaceTrack":{"CCSDS_OMM_VERS":"2.0","COMMENT":"GENERATED VIA SPACE-TRACK.ORG API","CREATION_DATE":"2020-09-19 22:46:10","ORIGINATOR":"18 SPCS","OBJECT_NAME":"STARLINK-1058","OBJECT_ID":"2019-074BC","CENTER_NAME":"EARTH","REF_FRAME":"TEME","TIME_SYSTEM":"UTC","MEAN_ELEMENT_THEORY":"SGP4","EPOCH":"2020-09-19 20:00:01.000224","MEAN_MOTION":15.05613029,"ECCENTRICITY":0.0001543,"INCLINATION":52.9994,"RA_OF_ASC_NODE":190.8509,"ARG_OF_PERICENTER":79.6685,"MEAN_ANOMALY":144.3209,"EPHEMERIS_TYPE":0,"CLASSIFICATION_TYPE":"U","NORAD_CAT_ID":44763,"ELEMENT_SET_NO":999,"REV_AT_EPOCH":4740,"BSTAR":0.000075153,"MEAN_MOTION_DOT":0.00000817,"MEAN_MOTION_DDOT":0,"SEMIMAJOR_AXIS":6927.761,"PERIOD":95.642,"APOAPSIS":550.695,"PERIAPSIS":548.557,"OBJECT_TYPE":"PAYLOAD","RCS_SIZE":"LARGE","COUNTRY_CODE":"US","LAUNCH_DATE":"2019-11-11","SITE":"AFETR","DECAY_DATE":null,"DECAYED":0,"FILE":2828429,"GP_ID":161736573,"TLE_LINE0":"0 STARLINK-1058","TLE_LINE1":"1 44763U 19074BC  20263.83334491  .00000817  00000-0  75153-4 0  9994","TLE_LINE2":"2 44763  52.9994 190.8509 0001543  79.6685 144.3209 15.05613029 47400"},"version":"v1.0","launch":"5eb87d39ffd86e000604b37d","longitude":-65.8317378373344,"latitude":-23.714091663458753,"height_km":556.8056129480656,"velocity_kms":7.582999234163601,"id":"5eed7714096e590006985677"},{"spaceTrack":{"CCSDS_OMM_VERS":"2.0","COMMENT":"GENERATED VIA SPACE-TRACK.ORG API","CREATION_DATE":"2020-09-20 06:36:10","ORIGINATOR":"18 SPCS","OBJECT_NAME":"STARLINK-1053","OBJECT_ID":"2019-074AX","CENTER_NAME":"EARTH","REF_FRAME":"TEME","TIME_SYSTEM":"UTC","MEAN_ELEMENT_THEORY":"SGP4","EPOCH":"2020-09-20 04:00:00.999936","MEAN_MOTION":15.05585503,"ECCENTRICITY":0.0001454,"INCLINATION":53.002,"RA_OF_ASC_NODE":189.3556,"ARG_OF_PERICENTER":82.4191,"MEAN_ANOMALY":203.3339,"EPHEMERIS_TYPE":0,"CLASSIFICATION_TYPE":"U","NORAD_CAT_ID":44758,"ELEMENT_SET_NO":999,"REV_AT_EPOCH":4745,"BSTAR":0.0014554,"MEAN_MOTION_DOT":0.00020992,"MEAN_MOTION_DDOT":0,"SEMIMAJOR_AXIS":6927.845,"PERIOD":95.643,"APOAPSIS":550.718,"PERIAPSIS":548.703,"OBJECT_TYPE":"PAYLOAD","RCS_SIZE":"LARGE","COUNTRY_CODE":"US","LAUNCH_DATE":"2019-11-11","SITE":"AFETR","DECAY_DATE":null,"DECAYED":0,"FILE":2828828,"GP_ID":161766851,"TLE_LINE0":"0 STARLINK-1053","TLE_LINE1":"1 44758U 19074AX  20264.16667824  .00020992  00000-0  14554-2 0  9996","TLE_LINE2":"2 44758  53.0020 189.3556 0001454  82.4191 203.3339 15.05585503 47456"},"version":"v1.0","launch":"5eb87d39ffd86e000604b37d","longitude":-31.65833405025586,"latitude":18.997621458819918,"height_km":549.5161998184522,"velocity_kms":7.590276969111057,"id":"5eed7714096e590006985679"},{"spaceTrack":{"CCSDS_OMM_VERS":"2.0","COMMENT":"GENERATED VIA SPACE-TRACK.ORG API","CREATION_DATE":"2020-09-19 22:46:10","ORIGINATOR":"18 SPCS","OBJECT_NAME":"STARLINK-1035","OBJECT_ID":"2019-074AD","CENTER_NAME":"EARTH","REF_FRAME":"TEME","TIME_SYSTEM":"UTC","MEAN_ELEMENT_THEORY":"SGP4","EPOCH":"2020-09-19 20:00:01.000224","MEAN_MOTION":15.05601407,"ECCENTRICITY":0.0001689,"INCLINATION":52.9994,"RA_OF_ASC_NODE":170.8551,"ARG_OF_PERICENTER":80.4713,"MEAN_ANOMALY":17.2792,"EPHEMERIS_TYPE":0,"CLASSIFICATION_TYPE":"U","NORAD_CAT_ID":44740,"ELEMENT_SET_NO":999,"REV_AT_EPOCH":4767,"BSTAR":-0.0012853,"MEAN_MOTION_DOT":-0.00018967,"MEAN_MOTION_DDOT":0,"SEMIMAJOR_AXIS":6927.797,"PERIOD":95.642,"APOAPSIS":550.832,"PERIAPSIS":548.492,"OBJECT_TYPE":"PAYLOAD","RCS_SIZE":"LARGE","COUNTRY_CODE":"US","LAUNCH_DATE":"2019-11-11","SITE":"AFETR","DECAY_DATE":null,"DECAYED":0,"FILE":2828422,"GP_ID":161736475,"TLE_LINE0":"0 STARLINK-1035","TLE_LINE1":"1 44740U 19074AD  20263.83334491 -.00018967  00000-0 -12853-2 0  9992","TLE_LINE2":"2 44740  52.9994 170.8551 0001689  80.4713  17.2792 15.05601407 47674"},"version":"v1.0","launch":"5eb87d39ffd86e000604b37d","longitude":128.26498877801302,"latitude":-18.90269957732376,"height_km":555.5256568632221,"velocity_kms":7.583740228561369,"id":"5eed7714096e59000698567a"},{"spaceTrack":{"CCSDS_OMM_VERS":"2.0","COMMENT":"GENERATED VIA SPACE-TRACK.ORG API","CREATION_DATE":"2020-09-20 06:36:10","ORIGINATOR":"18 SPCS","OBJECT_NAME":"STARLINK-1052","OBJECT_ID":"2019-074AW","CENTER_NAME":"EARTH","REF_FRAME":"TEME","TIME_SYSTEM":"UTC","MEAN_ELEMENT_THEORY":"SGP4","EPOCH":"2020-09-20 04:00:00.999936","MEAN_MOTION":15.0556453,"ECCENTRICITY":0.0001785,"INCLINATION":52.9992,"RA_OF_ASC_NODE":169.3592,"ARG_OF_PERICENTER":62.4474,"MEAN_ANOMALY":241.0044,"EPHEMERIS_TYPE":0,"CLASSIFICATION_TYPE":"U","NORAD_CAT_ID":44757,"ELEMENT_SET_NO":999,"REV_AT_EPOCH":4772,"BSTAR":0.0026109,"MEAN_MOTION_DOT":0.00037951,"MEAN_MOTION_DDOT":0,"SEMIMAJOR_AXIS":6927.91,"PERIOD":95.645,"APOAPSIS":551.011,"PERIAPSIS":548.538,"OBJECT_TYPE":"PAYLOAD","RCS_SIZE":"LARGE","COUNTRY_CODE":"US","LAUNCH_DATE":"2019-11-11","SITE":"AFETR","DECAY_DATE":null,"DECAYED":0,"FILE":2828824,"GP_ID":161765796,"TLE_LINE0":"0 STARLINK-1052","TLE_LINE1":"1 44757U 19074AW  20264.16667824  .00037951  00000-0  26109-2 0  9997","TLE_LINE2":"2 44757  52.9992 169.3592 0001785  62.4474 241.0044 15.05564530 47727"},"version":"v1.0","launch":"5eb87d39ffd86e000604b37d","longitude":-38.462266950663825,"latitude":32.1852630854975,"height_km":550.5751450820098,"velocity_kms":7.591426514098965,"id":"5eed7714096e59000698567b"},{"spaceTrack":{"CCSDS_OMM_VERS":"2.0","COMMENT":"GENERATED VIA SPACE-TRACK.ORG API","CREATION_DATE":"2020-09-20 14:46:10","ORIGINATOR":"18 SPCS","OBJECT_NAME":"STARLINK-1064","OBJECT_ID":"2019-074BJ","CENTER_NAME":"EARTH","REF_FRAME":"TEME","TIME_SYSTEM":"UTC","MEAN_ELEMENT_THEORY":"SGP4","EPOCH":"2020-09-20 14:00:01.000224","MEAN_MOTION":15.05593073,"ECCENTRICITY":0.0001696,"INCLINATION":52.9995,"RA_OF_ASC_NODE":187.4839,"ARG_OF_PERICENTER":77.5039,"MEAN_ANOMALY":181.9213,"EPHEMERIS_TYPE":0,"CLASSIFICATION_TYPE":"U","NORAD_CAT_ID":44769,"ELEMENT_SET_NO":999,"REV_AT_EPOCH":4751,"BSTAR":-0.00039799,"MEAN_MOTION_DOT":-0.00006075,"MEAN_MOTION_DDOT":0,"SEMIMAJOR_AXIS":6927.822,"PERIOD":95.643,"APOAPSIS":550.862,"PERIAPSIS":548.512,"OBJECT_TYPE":"PAYLOAD","RCS_SIZE":"LARGE","COUNTRY_CODE":"US","LAUNCH_DATE":"2019-11-11","SITE":"AFETR","DECAY_DATE":null,"DECAYED":0,"FILE":2829293,"GP_ID":161775712,"TLE_LINE0":"0 STARLINK-1064","TLE_LINE1":"1 44769U 19074BJ  20264.58334491 -.00006075  00000-0 -39799-3 0  9992","TLE_LINE2":"2 44769  52.9995 187.4839 0001696  77.5039 181.9213 15.05593073 47514"},"version":"v1.0","launch":"5eb87d39ffd86e000604b37d","longitude":-155.9431149869615,"latitude":-51.54219141308046,"height_km":568.6996152136289,"velocity_kms":7.575867588691223,"id":"5eed7714096e59000698567c"}]